
# Worst residual: 186.34 km
# MJD 59273.000000 (2021 Feb 28  0:00)
ZTF0KOI = ZTF0KQT = ZTF0K7F
1 88866U 00000ABH 21059.49919926  .00000000  00000-0  00000-0 0 11467
2 88866 013.1540 013.0301 7366154 320.8501 071.1134 00.97392408    00

# Worst residual: 184.63 km
# MJD 59274.000000 (2021 Mar  1  0:00)
ZTF0KOI = ZTF0KQT = ZTF0K7F
1 88866U 00000ABH 21060.49919926  .00000000  00000-0  00000-0 0 11469
2 88866 013.1399 013.0250 7356400 321.4356 060.1169 00.97393989    04

# Worst residual: 170.46 km
# MJD 59275.000000 (2021 Mar  2  0:00)
ZTF0KOI = ZTF0KQT = ZTF0K7F
1 88866U 00000ABH 21061.49919926  .00000000  00000-0  00000-0 0 11460
2 88866 013.1183 013.0522 7347351 322.0009 048.9715 00.97391382    00

# Worst residual: 149.09 km
# MJD 59276.000000 (2021 Mar  3  0:00)
ZTF0KOI = ZTF0KQT = ZTF0K7F
1 88866U 00000ABH 21062.49919926  .00000000  00000-0  00000-0 0 11461
2 88866 013.0873 013.0905 7339602 322.5499 037.7016 00.97382085    08

# Worst residual: 131.89 km
# MJD 59277.000000 (2021 Mar  4  0:00)
ZTF0KOI = ZTF0KQT = ZTF0K7F
1 88866U 00000ABH 21063.49919926  .00000000  00000-0  00000-0 0 11462
2 88866 013.0786 013.0953 7329680 323.1336 026.2777 00.97352531    06

# Worst residual: 102.81 km
# MJD 59278.000000 (2021 Mar  5  0:00)
ZTF0KOI = ZTF0KQT = ZTF0K7F
1 88866U 00000ABH 21064.49919926  .00000000  00000-0  00000-0 0 11463
2 88866 013.0629 013.0990 7321159 323.7358 014.6704 00.97306381    09

# Worst residual: 100.94 km
# MJD 59279.000000 (2021 Mar  6  0:00)
ZTF0KOI = ZTF0KQT = ZTF0K7F
1 88866U 00000ABH 21065.49919926  .00000000  00000-0  00000-0 0 11464
2 88866 013.0572 013.0825 7313093 324.3481 002.9102 00.97243598    07

# Worst residual: 114.08 km
# MJD 59280.000000 (2021 Mar  7  0:00)
ZTF0KOI = ZTF0KQT = ZTF0K7F
1 88866U 00000ABH 21066.49919926  .00000000  00000-0  00000-0 0 11465
2 88866 013.0274 013.1241 7303725 324.8975 351.0051 00.97164833    08

# Worst residual: 115.62 km
# MJD 59281.000000 (2021 Mar  8  0:00)
ZTF0KOI = ZTF0KQT = ZTF0K7F
1 88866U 00000ABH 21067.49919926  .00000000  00000-0  00000-0 0 11466
2 88866 013.0140 013.1191 7293993 325.5019 338.9195 00.97072775    02

# Worst residual: 123.75 km
# MJD 59282.000000 (2021 Mar  9  0:00)
ZTF0KOI = ZTF0KQT = ZTF0K7F
1 88866U 00000ABH 21068.49919926  .00000000  00000-0  00000-0 0 11467
2 88866 013.0023 013.1082 7284348 326.1035 326.6921 00.96972978    04

# Worst residual: 144.81 km
# MJD 59283.000000 (2021 Mar 10  0:00)
ZTF0KOI = ZTF0KQT = ZTF0K7F
1 88866U 00000ABH 21069.49919926  .00000000  00000-0  00000-0 0 11468
2 88866 012.9766 013.1165 7273535 326.6809 314.3165 00.96864135    07

# Worst residual: 149.83 km
# MJD 59284.000000 (2021 Mar 11  0:00)
ZTF0KOI = ZTF0KQT = ZTF0K7F
1 88866U 00000ABH 21070.49919926  .00000000  00000-0  00000-0 0 11460
2 88866 012.9683 013.1090 7260527 327.2754 301.7585 00.96774321    08

# Worst residual: 146.77 km
# MJD 59285.000000 (2021 Mar 12  0:00)
ZTF0KOI = ZTF0KQT = ZTF0K7F
1 88866U 00000ABH 21071.49919926  .00000000  00000-0  00000-0 0 11461
2 88866 012.9742 013.0368 7248838 327.9320 289.0497 00.96662597    09

# Worst residual: 145.88 km
# MJD 59286.000000 (2021 Mar 13  0:00)
ZTF0KOI = ZTF0KQT = ZTF0K7F
1 88866U 00000ABH 21072.49919926  .00000000  00000-0  00000-0 0 11462
2 88866 012.9726 013.0083 7233848 328.5321 276.1735 00.96559827    01

# Worst residual: 119.04 km
# MJD 59287.000000 (2021 Mar 14  0:00)
ZTF0KOI = ZTF0KQT = ZTF0K7F
1 88866U 00000ABH 21073.49919926  .00000000  00000-0  00000-0 0 11463
2 88866 012.9680 012.9736 7218344 329.1570 263.0918 00.96460586    01

# Worst residual: 94.94 km
# MJD 59288.000000 (2021 Mar 15  0:00)
ZTF0KOI = ZTF0KQT = ZTF0K7F
1 88866U 00000ABH 21074.49919926  .00000000  00000-0  00000-0 0 11464
2 88866 012.9649 012.9350 7203262 329.7922 249.8259 00.96374083    04

# Worst residual: 68.53 km
# MJD 59289.000000 (2021 Mar 16  0:00)
ZTF0KOI = ZTF0KQT = ZTF0K7F
1 88866U 00000ABH 21075.49919926  .00000000  00000-0  00000-0 0 11465
2 88866 012.9631 012.8921 7186101 330.4318 236.3859 00.96286724    09

# Worst residual: 51.24 km
# MJD 59290.000000 (2021 Mar 17  0:00)
ZTF0KOI = ZTF0KQT = ZTF0K7F
1 88866U 00000ABH 21076.49919926  .00000000  00000-0  00000-0 0 11466
2 88866 012.9584 012.8404 7167743 331.0963 222.7323 00.96196947    08

# Worst residual: 58.06 km
# MJD 59291.000000 (2021 Mar 18  0:00)
ZTF0KOI = ZTF0KQT = ZTF0K7F
1 88866U 00000ABH 21077.49919926  .00000000  00000-0  00000-0 0 11467
2 88866 012.9639 012.7955 7151762 331.7649 208.8794 00.96135611    09

# Worst residual: 57.69 km
# MJD 59292.000000 (2021 Mar 19  0:00)
ZTF0KOI = ZTF0KQT = ZTF0K7F
1 88866U 00000ABH 21078.49919926  .00000000  00000-0  00000-0 0 11468
2 88866 012.9720 012.7463 7137012 332.4338 194.8613 00.96092873    05

# Worst residual: 70.89 km
# MJD 59293.000000 (2021 Mar 20  0:00)
ZTF0KOI = ZTF0KQT = ZTF0K7F
1 88866U 00000ABH 21079.49919926  .00000000  00000-0  00000-0 0 11469
2 88866 012.9716 012.6839 7121459 333.1235 180.6376 00.96058234    00

# Worst residual: 86.72 km
# MJD 59294.000000 (2021 Mar 21  0:00)
ZTF0KOI = ZTF0KQT = ZTF0K7F
1 88866U 00000ABH 21080.49919926  .00000000  00000-0  00000-0 0 11461
2 88866 012.9777 012.6224 7110055 333.8027 166.2430 00.96065805    04

# Worst residual: 128.31 km
# MJD 59295.000000 (2021 Mar 22  0:00)
ZTF0KOI = ZTF0KQT = ZTF0K7F
1 88866U 00000ABH 21081.49919926  .00000000  00000-0  00000-0 0 11462
2 88866 012.9851 012.5645 7098847 334.4596 151.7073 00.96066265    08

# Worst residual: 182.26 km
# MJD 59296.000000 (2021 Mar 23  0:00)
ZTF0KOI = ZTF0KQT = ZTF0K7F
1 88866U 00000ABH 21082.49919926  .00000000  00000-0  00000-0 0 11463
2 88866 012.9895 012.5476 7084178 335.0715 136.9874 00.96062623    08

# Worst residual: 197.94 km
# MJD 59297.000000 (2021 Mar 24  0:00)
ZTF0KOI = ZTF0KQT = ZTF0K7F
1 88866U 00000ABH 21083.49919926  .00000000  00000-0  00000-0 0 11464
2 88866 013.0026 012.4445 7069172 335.7738 122.0666 00.96072044    03

# Worst residual: 181.54 km
# MJD 59298.000000 (2021 Mar 25  0:00)
ZTF0KOI = ZTF0KQT = ZTF0K7F
1 88866U 00000ABH 21084.49919926  .00000000  00000-0  00000-0 0 11465
2 88866 013.0121 012.3845 7053430 336.4236 106.9915 00.96092263    06

# Worst residual: 175.72 km
# MJD 59299.000000 (2021 Mar 26  0:00)
ZTF0KOI = ZTF0KQT = ZTF0K7F
1 88866U 00000ABH 21085.49919926  .00000000  00000-0  00000-0 0 11466
2 88866 013.0231 012.3218 7034719 337.0968 091.6880 00.96111609    07

# Worst residual: 173.51 km
# MJD 59300.000000 (2021 Mar 27  0:00)
ZTF0KOI = ZTF0KQT = ZTF0K7F
1 88866U 00000ABH 21086.49919926  .00000000  00000-0  00000-0 0 11467
2 88866 013.0432 012.2137 7016439 337.8166 076.1903 00.96138895    06

# Worst residual: 165.33 km
# MJD 59301.000000 (2021 Mar 28  0:00)
ZTF0KOI = ZTF0KQT = ZTF0K7F
1 88866U 00000ABH 21087.49919926  .00000000  00000-0  00000-0 0 11468
2 88866 013.0498 012.1877 6993424 338.4741 060.4993 00.96149429    01
